{
  "type": "FeatureCollection",
  "generator": "overpass-turbo",
  "copyright": "The data included in this document is from www.openstreetmap.org. The data is made available under ODbL.",
  "timestamp": "2025-01-26T02:18:06Z",
  "features": [
    {
      "type": "Feature",
      "properties": {
        "@id": "node/150937741",
        "ele": "973",
        "gnis:feature_id": "1167210",
        "name": "Lost Lake Resort",
        "tourism": "resort"
      },
      "geometry": {
        "type": "Point",
        "coordinates": [
          -121.8186889,
          45.4976179
        ]
      },
      "id": "node/150937741"
    },
    {
      "type": "Feature",
      "properties": {
        "@id": "node/357614780",
        "ele": "1",
        "gnis:feature_id": "2075812",
        "leisure": "beach_resort",
        "name": "Silver Point Beach Club",
        "website": "https://www.silverpointclub.com/index.php",
        "wikidata": "Q34861772"
      },
      "geometry": {
        "type": "Point",
        "coordinates": [
          -73.746336,
          40.5882103
        ]
      },
      "id": "node/357614780"
    },
    {
      "type": "Feature",
      "properties": {
        "@id": "node/358780087",
        "ele": "8",
        "gnis:feature_id": "238849",
        "leisure": "beach_resort",
        "name": "Avila State Beach"
      },
      "geometry": {
        "type": "Point",
        "coordinates": [
          -120.7340692,
          35.1785622
        ]
      },
      "id": "node/358780087"
    },
    {
      "type": "Feature",
      "properties": {
        "@id": "node/725473297",
        "leisure": "beach_resort",
        "name": "Breezy Point Resort"
      },
      "geometry": {
        "type": "Point",
        "coordinates": [
          -94.2190195,
          46.5914695
        ]
      },
      "id": "node/725473297"
    },
    {
      "type": "Feature",
      "properties": {
        "@id": "node/2454567257",
        "addr:housenumber": "27921",
        "addr:postcode": "56586",
        "addr:street": "340th Avenue",
        "leisure": "resort",
        "name": "Whispering Waters Resort",
        "phone": "+1-218-495-2552",
        "tourism": "resort",
        "website": "http://www.WhisperingWatersMN.com"
      },
      "geometry": {
        "type": "Point",
        "coordinates": [
          -95.7811528,
          46.3676772
        ]
      },
      "id": "node/2454567257"
    },
    {
      "type": "Feature",
      "properties": {
        "@id": "node/2575212830",
        "addr:city": "Sea Bright",
        "addr:housenumber": "801",
        "addr:postcode": "07760",
        "addr:state": "NJ",
        "addr:street": "Ocean Avenue",
        "leisure": "beach_resort",
        "name": "Ship Ahoy Beach Club"
      },
      "geometry": {
        "type": "Point",
        "coordinates": [
          -73.9737056,
          40.3715336
        ]
      },
      "id": "node/2575212830"
    },
    {
      "type": "Feature",
      "properties": {
        "@id": "node/2575212863",
        "addr:city": "Sea Bright",
        "addr:housenumber": "999",
        "addr:postcode": "07760",
        "addr:state": "NJ",
        "addr:street": "Ocean Avenue",
        "leisure": "beach_resort",
        "name": "Seabright Beach Club"
      },
      "geometry": {
        "type": "Point",
        "coordinates": [
          -73.9730408,
          40.3652348
        ]
      },
      "id": "node/2575212863"
    },
    {
      "type": "Feature",
      "properties": {
        "@id": "node/2669382020",
        "addr:city": "Solon Springs",
        "addr:housenumber": "3855",
        "addr:postcode": "54873",
        "addr:state": "WI",
        "addr:street": "Twin Bay Road",
        "leisure": "beach_resort",
        "name": "Traut's Resort LLC",
        "phone": "1-715-795-2529"
      },
      "geometry": {
        "type": "Point",
        "coordinates": [
          -91.4919781,
          46.3020479
        ]
      },
      "id": "node/2669382020"
    },
    {
      "type": "Feature",
      "properties": {
        "@id": "node/3040194901",
        "addr:housenumber": "715",
        "addr:street": "US 212",
        "name": "Big Moose Resort",
        "phone": "+1 406 8382393",
        "tourism": "resort",
        "website": "https://bigmooseresort.com/"
      },
      "geometry": {
        "type": "Point",
        "coordinates": [
          -109.8789283,
          45.0236064
        ]
      },
      "id": "node/3040194901"
    },
    {
      "type": "Feature",
      "properties": {
        "@id": "node/3048380506",
        "leisure": "beach_resort",
        "name": "Rocky Branch"
      },
      "geometry": {
        "type": "Point",
        "coordinates": [
          -87.4212025,
          33.272894
        ]
      },
      "id": "node/3048380506"
    },
    {
      "type": "Feature",
      "properties": {
        "@id": "node/3347071434",
        "leisure": "beach_resort",
        "name": "Bimini Big Game Club Resort and Marina",
        "website": "https://www.biggameclubbimini.com/"
      },
      "geometry": {
        "type": "Point",
        "coordinates": [
          -79.2955222,
          25.7268133
        ]
      },
      "id": "node/3347071434"
    },
    {
      "type": "Feature",
      "properties": {
        "@id": "node/3429573693",
        "addr:housenumber": "95",
        "addr:street": "Cedar Hollow Road",
        "name": "Serendipity Park",
        "nudism": "customary",
        "tourism": "resort"
      },
      "geometry": {
        "type": "Point",
        "coordinates": [
          -83.6709915,
          34.6103508
        ]
      },
      "id": "node/3429573693"
    },
    {
      "type": "Feature",
      "properties": {
        "@id": "node/3429579256",
        "addr:housenumber": "90",
        "addr:street": "Carolina Foothills Drive",
        "name": "Carolina Foothills Resort",
        "nudism": "designated",
        "tourism": "resort"
      },
      "geometry": {
        "type": "Point",
        "coordinates": [
          -81.962841,
          35.1731154
        ]
      },
      "id": "node/3429579256"
    },
    {
      "type": "Feature",
      "properties": {
        "@id": "node/3575812477",
        "fee": "yes",
        "leisure": "beach_resort",
        "name": "Silver Gull Beach Club",
        "website": "https://nysilvergull.com/"
      },
      "geometry": {
        "type": "Point",
        "coordinates": [
          -73.9020113,
          40.5576595
        ]
      },
      "id": "node/3575812477"
    },
    {
      "type": "Feature",
      "properties": {
        "@id": "node/3608139493",
        "leisure": "beach_resort"
      },
      "geometry": {
        "type": "Point",
        "coordinates": [
          -121.1768983,
          37.7026587
        ]
      },
      "id": "node/3608139493"
    },
    {
      "type": "Feature",
      "properties": {
        "@id": "node/3717282781",
        "name": "Hilton Lake Las Vegs Resort & Spa",
        "tourism": "resort",
        "website": "https://www3.hilton.com/en/hotels/nevada/hilton-lake-las-vegas-resort-and-spa-LASLKHF/index.html"
      },
      "geometry": {
        "type": "Point",
        "coordinates": [
          -114.9320142,
          36.1021586
        ]
      },
      "id": "node/3717282781"
    },
    {
      "type": "Feature",
      "properties": {
        "@id": "node/4413710938",
        "addr:city": "Hayward",
        "addr:country": "US",
        "addr:housenumber": "9993",
        "addr:postcode": "54843",
        "addr:state": "WI",
        "addr:street": "N Grand Pines Lane",
        "name": "GrandPines Resort and Motel - Round Lake",
        "tourism": "resort",
        "website": "https://www.grandpines.com/"
      },
      "geometry": {
        "type": "Point",
        "coordinates": [
          -91.3097303,
          45.9933224
        ]
      },
      "id": "node/4413710938"
    },
    {
      "type": "Feature",
      "properties": {
        "@id": "node/4679409309",
        "leisure": "beach_resort"
      },
      "geometry": {
        "type": "Point",
        "coordinates": [
          -77.197351,
          41.8069816
        ]
      },
      "id": "node/4679409309"
    },
    {
      "type": "Feature",
      "properties": {
        "@id": "node/4791674684",
        "leisure": "beach_resort",
        "name": "Boca Beach Club"
      },
      "geometry": {
        "type": "Point",
        "coordinates": [
          -80.071556,
          26.3401626
        ]
      },
      "id": "node/4791674684"
    },
    {
      "type": "Feature",
      "properties": {
        "@id": "node/5397454947",
        "name": "Forsyth Sunlite Resort",
        "tourism": "resort",
        "website": "http://www.wisvacations.com/forsythsunliteresort/"
      },
      "geometry": {
        "type": "Point",
        "coordinates": [
          -89.320542,
          45.6093077
        ]
      },
      "id": "node/5397454947"
    },
    {
      "type": "Feature",
      "properties": {
        "@id": "node/5423851734",
        "leisure": "beach_resort",
        "name": "Monalisa"
      },
      "geometry": {
        "type": "Point",
        "coordinates": [
          -116.6172624,
          31.7843692
        ]
      },
      "id": "node/5423851734"
    },
    {
      "type": "Feature",
      "properties": {
        "@id": "node/5443571573",
        "name": "Cedar Island Lodge",
        "tourism": "resort"
      },
      "geometry": {
        "type": "Point",
        "coordinates": [
          -93.5523069,
          49.0680391
        ]
      },
      "id": "node/5443571573"
    },
    {
      "type": "Feature",
      "properties": {
        "@id": "node/5458179571",
        "leisure": "beach_resort"
      },
      "geometry": {
        "type": "Point",
        "coordinates": [
          -80.1043922,
          26.1082909
        ]
      },
      "id": "node/5458179571"
    },
    {
      "type": "Feature",
      "properties": {
        "@id": "node/5458179590",
        "leisure": "beach_resort"
      },
      "geometry": {
        "type": "Point",
        "coordinates": [
          -80.1031463,
          26.1295418
        ]
      },
      "id": "node/5458179590"
    },
    {
      "type": "Feature",
      "properties": {
        "@id": "node/5461991168",
        "leisure": "beach_resort"
      },
      "geometry": {
        "type": "Point",
        "coordinates": [
          -80.1210339,
          25.8157593
        ]
      },
      "id": "node/5461991168"
    },
    {
      "type": "Feature",
      "properties": {
        "@id": "node/5461991169",
        "leisure": "beach_resort"
      },
      "geometry": {
        "type": "Point",
        "coordinates": [
          -80.1219741,
          25.8069991
        ]
      },
      "id": "node/5461991169"
    },
    {
      "type": "Feature",
      "properties": {
        "@id": "node/5461991170",
        "leisure": "beach_resort"
      },
      "geometry": {
        "type": "Point",
        "coordinates": [
          -80.1263461,
          25.7935037
        ]
      },
      "id": "node/5461991170"
    },
    {
      "type": "Feature",
      "properties": {
        "@id": "node/5461991171",
        "leisure": "beach_resort"
      },
      "geometry": {
        "type": "Point",
        "coordinates": [
          -80.1268503,
          25.7911443
        ]
      },
      "id": "node/5461991171"
    },
    {
      "type": "Feature",
      "properties": {
        "@id": "node/5461991173",
        "leisure": "beach_resort"
      },
      "geometry": {
        "type": "Point",
        "coordinates": [
          -80.1307905,
          25.7693914
        ]
      },
      "id": "node/5461991173"
    },
    {
      "type": "Feature",
      "properties": {
        "@id": "node/5461991186",
        "leisure": "beach_resort"
      },
      "geometry": {
        "type": "Point",
        "coordinates": [
          -80.13071,
          25.7702102
        ]
      },
      "id": "node/5461991186"
    },
    {
      "type": "Feature",
      "properties": {
        "@id": "node/5461991191",
        "leisure": "beach_resort"
      },
      "geometry": {
        "type": "Point",
        "coordinates": [
          -80.1303948,
          25.7722416
        ]
      },
      "id": "node/5461991191"
    },
    {
      "type": "Feature",
      "properties": {
        "@id": "node/5461991196",
        "leisure": "beach_resort"
      },
      "geometry": {
        "type": "Point",
        "coordinates": [
          -80.1300931,
          25.7735918
        ]
      },
      "id": "node/5461991196"
    },
    {
      "type": "Feature",
      "properties": {
        "@id": "node/5461992825",
        "leisure": "beach_resort"
      },
      "geometry": {
        "type": "Point",
        "coordinates": [
          -80.1274109,
          25.7873913
        ]
      },
      "id": "node/5461992825"
    },
    {
      "type": "Feature",
      "properties": {
        "@id": "node/5461992826",
        "leisure": "beach_resort"
      },
      "geometry": {
        "type": "Point",
        "coordinates": [
          -80.1272513,
          25.7889828
        ]
      },
      "id": "node/5461992826"
    },
    {
      "type": "Feature",
      "properties": {
        "@id": "node/5461992831",
        "leisure": "beach_resort"
      },
      "geometry": {
        "type": "Point",
        "coordinates": [
          -80.12668,
          25.7921278
        ]
      },
      "id": "node/5461992831"
    },
    {
      "type": "Feature",
      "properties": {
        "@id": "node/5461992836",
        "leisure": "beach_resort"
      },
      "geometry": {
        "type": "Point",
        "coordinates": [
          -80.126043,
          25.7949382
        ]
      },
      "id": "node/5461992836"
    },
    {
      "type": "Feature",
      "properties": {
        "@id": "node/5461992841",
        "leisure": "beach_resort"
      },
      "geometry": {
        "type": "Point",
        "coordinates": [
          -80.1256393,
          25.7969909
        ]
      },
      "id": "node/5461992841"
    },
    {
      "type": "Feature",
      "properties": {
        "@id": "node/5461992842",
        "leisure": "beach_resort"
      },
      "geometry": {
        "type": "Point",
        "coordinates": [
          -80.1254073,
          25.7984857
        ]
      },
      "id": "node/5461992842"
    },
    {
      "type": "Feature",
      "properties": {
        "@id": "node/5461992847",
        "leisure": "beach_resort"
      },
      "geometry": {
        "type": "Point",
        "coordinates": [
          -80.1249151,
          25.8000566
        ]
      },
      "id": "node/5461992847"
    },
    {
      "type": "Feature",
      "properties": {
        "@id": "node/5461992848",
        "leisure": "beach_resort"
      },
      "geometry": {
        "type": "Point",
        "coordinates": [
          -80.1229236,
          25.8048162
        ]
      },
      "id": "node/5461992848"
    },
    {
      "type": "Feature",
      "properties": {
        "@id": "node/5461992849",
        "leisure": "beach_resort"
      },
      "geometry": {
        "type": "Point",
        "coordinates": [
          -80.1225615,
          25.8056686
        ]
      },
      "id": "node/5461992849"
    },
    {
      "type": "Feature",
      "properties": {
        "@id": "node/5769217582",
        "leisure": "beach_resort",
        "name": "Burlington Surf Club",
        "website": "https://www.burlingtonsurfclub.com/"
      },
      "geometry": {
        "type": "Point",
        "coordinates": [
          -73.219366,
          44.4644875
        ]
      },
      "id": "node/5769217582"
    },
    {
      "type": "Feature",
      "properties": {
        "@id": "node/5991570946",
        "leisure": "beach_resort",
        "operator": "Coldsprings Township"
      },
      "geometry": {
        "type": "Point",
        "coordinates": [
          -85.030803,
          44.776352
        ]
      },
      "id": "node/5991570946"
    },
    {
      "type": "Feature",
      "properties": {
        "@id": "node/6231201516",
        "addr:city": "Orchid",
        "addr:housenumber": "1",
        "addr:postcode": "32963",
        "addr:state": "FL",
        "addr:street": "Beachside Drive",
        "leisure": "beach_resort",
        "name": "Orchid Island Beach Club"
      },
      "geometry": {
        "type": "Point",
        "coordinates": [
          -80.4022,
          27.773371
        ]
      },
      "id": "node/6231201516"
    },
    {
      "type": "Feature",
      "properties": {
        "@id": "node/6392582493",
        "leisure": "beach_resort"
      },
      "geometry": {
        "type": "Point",
        "coordinates": [
          -80.1037753,
          26.1228977
        ]
      },
      "id": "node/6392582493"
    },
    {
      "type": "Feature",
      "properties": {
        "@id": "node/6392582494",
        "leisure": "beach_resort"
      },
      "geometry": {
        "type": "Point",
        "coordinates": [
          -80.1042044,
          26.1181775
        ]
      },
      "id": "node/6392582494"
    },
    {
      "type": "Feature",
      "properties": {
        "@id": "node/6392582499",
        "leisure": "beach_resort"
      },
      "geometry": {
        "type": "Point",
        "coordinates": [
          -80.104081,
          26.1204498
        ]
      },
      "id": "node/6392582499"
    },
    {
      "type": "Feature",
      "properties": {
        "@id": "node/6399641356",
        "leisure": "beach_resort",
        "name": "Las Amacas"
      },
      "geometry": {
        "type": "Point",
        "coordinates": [
          -106.8202613,
          28.2209297
        ]
      },
      "id": "node/6399641356"
    },
    {
      "type": "Feature",
      "properties": {
        "@id": "node/6712661219",
        "access": "private",
        "leisure": "beach_resort",
        "name": "Quantuck Beach Club",
        "website": "http://quantuckbeachclub.com/"
      },
      "geometry": {
        "type": "Point",
        "coordinates": [
          -72.6195866,
          40.8004362
        ]
      },
      "id": "node/6712661219"
    },
    {
      "type": "Feature",
      "properties": {
        "@id": "node/7094847808",
        "leisure": "beach_resort",
        "name": "MinneTeepee Resort beach"
      },
      "geometry": {
        "type": "Point",
        "coordinates": [
          -94.325504,
          46.9303641
        ]
      },
      "id": "node/7094847808"
    },
    {
      "type": "Feature",
      "properties": {
        "@id": "node/7471958784",
        "leisure": "beach_resort",
        "name": "Chippy's Sports Beach",
        "surface": "sand"
      },
      "geometry": {
        "type": "Point",
        "coordinates": [
          -89.1563859,
          44.1704888
        ]
      },
      "id": "node/7471958784"
    },
    {
      "type": "Feature",
      "properties": {
        "@id": "node/7559952233",
        "leisure": "beach_resort",
        "name": "Plage des Îles"
      },
      "geometry": {
        "type": "Point",
        "coordinates": [
          -74.0451282,
          45.291645
        ]
      },
      "id": "node/7559952233"
    },
    {
      "type": "Feature",
      "properties": {
        "@id": "node/7661817313",
        "leisure": "beach_resort",
        "name": "Plage municipale",
        "operator": "Ville de Drummonville"
      },
      "geometry": {
        "type": "Point",
        "coordinates": [
          -72.4378715,
          45.8582293
        ]
      },
      "id": "node/7661817313"
    },
    {
      "type": "Feature",
      "properties": {
        "@id": "node/7914889300",
        "addr:city": "Ludington",
        "addr:housenumber": "3298",
        "addr:postcode": "49431",
        "addr:state": "MI",
        "addr:street": "North Lakeshore Drive",
        "leisure": "resort",
        "name": "Waterside Resort",
        "phone": "+1 231 843 8481",
        "tourism": "resort",
        "website": "https://www.watersideresort.com/"
      },
      "geometry": {
        "type": "Point",
        "coordinates": [
          -86.4574577,
          44.0161259
        ]
      },
      "id": "node/7914889300"
    },
    {
      "type": "Feature",
      "properties": {
        "@id": "node/8122387798",
        "leisure": "beach_resort",
        "name": "Portuguese Bend Beach Club",
        "website": "https://www.pbcbeachclub.com/"
      },
      "geometry": {
        "type": "Point",
        "coordinates": [
          -118.3593957,
          33.7366732
        ]
      },
      "id": "node/8122387798"
    },
    {
      "type": "Feature",
      "properties": {
        "@id": "node/8224979807",
        "leisure": "beach_resort",
        "name": "NorWinJa"
      },
      "geometry": {
        "type": "Point",
        "coordinates": [
          -124.367756,
          43.1389862
        ]
      },
      "id": "node/8224979807"
    },
    {
      "type": "Feature",
      "properties": {
        "@id": "node/8870907271",
        "leisure": "beach_resort",
        "name": "Little Palm Resort"
      },
      "geometry": {
        "type": "Point",
        "coordinates": [
          -81.4012604,
          24.6239206
        ]
      },
      "id": "node/8870907271"
    },
    {
      "type": "Feature",
      "properties": {
        "@id": "node/9109616214",
        "addr:housenumber": "15781",
        "addr:street": "Northeast North Shore Road",
        "leisure": "beach_resort",
        "name": "Summertide Resort & Marina",
        "website": "https://www.summertideresort.com/"
      },
      "geometry": {
        "type": "Point",
        "coordinates": [
          -123.0704707,
          47.3723373
        ]
      },
      "id": "node/9109616214"
    },
    {
      "type": "Feature",
      "properties": {
        "@id": "node/9583387690",
        "addr:city": "Orange Beach",
        "addr:housenumber": "28103",
        "addr:postcode": "36561",
        "addr:state": "AL",
        "addr:street": "Perdido Beach Boulevard",
        "fee": "yes",
        "leisure": "beach_resort",
        "name": "Caribe Resort",
        "phone": "+1 251 980 9010",
        "website": "https://cariberesort.com/"
      },
      "geometry": {
        "type": "Point",
        "coordinates": [
          -87.5461948,
          30.2792906
        ]
      },
      "id": "node/9583387690"
    },
    {
      "type": "Feature",
      "properties": {
        "@id": "node/9809545162",
        "addr:city": "Sea Bright",
        "addr:housenumber": "931",
        "addr:postcode": "07760",
        "addr:state": "NJ",
        "addr:street": "Ocean Avenue",
        "leisure": "beach_resort",
        "name": "Surfrider Beach Club"
      },
      "geometry": {
        "type": "Point",
        "coordinates": [
          -73.9737104,
          40.3692018
        ]
      },
      "id": "node/9809545162"
    },
    {
      "type": "Feature",
      "properties": {
        "@id": "node/9809545163",
        "addr:city": "Sea Bright",
        "addr:housenumber": "825",
        "addr:postcode": "07760",
        "addr:state": "NJ",
        "addr:street": "Ocean Avenue",
        "leisure": "beach_resort",
        "name": "Sands Beach Club"
      },
      "geometry": {
        "type": "Point",
        "coordinates": [
          -73.9736029,
          40.3708239
        ]
      },
      "id": "node/9809545163"
    },
    {
      "type": "Feature",
      "properties": {
        "@id": "node/9887588208",
        "leisure": "beach_resort"
      },
      "geometry": {
        "type": "Point",
        "coordinates": [
          -77.5417145,
          26.0882756
        ]
      },
      "id": "node/9887588208"
    },
    {
      "type": "Feature",
      "properties": {
        "@id": "node/9887588209",
        "leisure": "beach_resort"
      },
      "geometry": {
        "type": "Point",
        "coordinates": [
          -77.5429557,
          26.0944718
        ]
      },
      "id": "node/9887588209"
    },
    {
      "type": "Feature",
      "properties": {
        "@id": "node/9887588210",
        "leisure": "beach_resort"
      },
      "geometry": {
        "type": "Point",
        "coordinates": [
          -77.540659,
          26.0879949
        ]
      },
      "id": "node/9887588210"
    },
    {
      "type": "Feature",
      "properties": {
        "@id": "node/9887588211",
        "leisure": "beach_resort"
      },
      "geometry": {
        "type": "Point",
        "coordinates": [
          -77.5377864,
          26.0845645
        ]
      },
      "id": "node/9887588211"
    },
    {
      "type": "Feature",
      "properties": {
        "@id": "node/9949883738",
        "leisure": "beach_resort",
        "name": "Clambake Beach"
      },
      "geometry": {
        "type": "Point",
        "coordinates": [
          -116.85094,
          48.5309083
        ]
      },
      "id": "node/9949883738"
    },
    {
      "type": "Feature",
      "properties": {
        "@id": "node/10091194508",
        "leisure": "beach_resort",
        "name": "country club"
      },
      "geometry": {
        "type": "Point",
        "coordinates": [
          -108.4521184,
          25.5684658
        ]
      },
      "id": "node/10091194508"
    },
    {
      "type": "Feature",
      "properties": {
        "@id": "node/10544347711",
        "alt_name": "LeCount Hollow Beach",
        "leisure": "beach_resort",
        "name": "Maguire Landing Beach",
        "nudism": "no",
        "operator": "Town of Wellfleet",
        "wikidata": "Q49321914"
      },
      "geometry": {
        "type": "Point",
        "coordinates": [
          -69.9745645,
          41.9229596
        ]
      },
      "id": "node/10544347711"
    },
    {
      "type": "Feature",
      "properties": {
        "@id": "node/10558547692",
        "leisure": "beach_resort"
      },
      "geometry": {
        "type": "Point",
        "coordinates": [
          -81.554102,
          28.9782738
        ]
      },
      "id": "node/10558547692"
    },
    {
      "type": "Feature",
      "properties": {
        "@id": "node/11113302918",
        "leisure": "beach_resort"
      },
      "geometry": {
        "type": "Point",
        "coordinates": [
          -111.1510336,
          25.5682556
        ]
      },
      "id": "node/11113302918"
    },
    {
      "type": "Feature",
      "properties": {
        "@id": "node/11429192634",
        "addr:housenumber": "134",
        "addr:street": "Menauhant Road",
        "leisure": "beach_resort",
        "name": "InnSeason Resorts Surfside",
        "phone": "+1 508 548 0313",
        "website": "https://www.innseason.com/surfside-resort"
      },
      "geometry": {
        "type": "Point",
        "coordinates": [
          -70.5822445,
          41.5454787
        ]
      },
      "id": "node/11429192634"
    },
    {
      "type": "Feature",
      "properties": {
        "@id": "node/11477728408",
        "addr:city": "Puerto Peñasco",
        "leisure": "beach_resort",
        "name": "Encantame Towers"
      },
      "geometry": {
        "type": "Point",
        "coordinates": [
          -113.3662635,
          31.2681852
        ]
      },
      "id": "node/11477728408"
    },
    {
      "type": "Feature",
      "properties": {
        "@id": "node/11860705345",
        "leisure": "beach_resort"
      },
      "geometry": {
        "type": "Point",
        "coordinates": [
          -100.2081758,
          25.7693599
        ]
      },
      "id": "node/11860705345"
    },
    {
      "type": "Feature",
      "properties": {
        "@id": "node/11984315264",
        "check_date": "2024-06-15",
        "leisure": "beach_resort",
        "name": "El Governor"
      },
      "geometry": {
        "type": "Point",
        "coordinates": [
          -85.4099277,
          29.9419359
        ]
      },
      "id": "node/11984315264"
    },
    {
      "type": "Feature",
      "properties": {
        "@id": "node/12154503605",
        "leisure": "beach_resort"
      },
      "geometry": {
        "type": "Point",
        "coordinates": [
          -74.5089121,
          46.3343577
        ]
      },
      "id": "node/12154503605"
    },
    {
      "type": "Feature",
      "properties": {
        "@id": "node/12154503606",
        "leisure": "beach_resort"
      },
      "geometry": {
        "type": "Point",
        "coordinates": [
          -74.507174,
          46.3337206
        ]
      },
      "id": "node/12154503606"
    },
    {
      "type": "Feature",
      "properties": {
        "@id": "node/12174978590",
        "leisure": "beach_resort"
      },
      "geometry": {
        "type": "Point",
        "coordinates": [
          -95.6679531,
          42.9847465
        ]
      },
      "id": "node/12174978590"
    },
    {
      "type": "Feature",
      "properties": {
        "@id": "node/12181038228",
        "leisure": "beach_resort",
        "name": "The Beach Club (Mar-a-Lago)"
      },
      "geometry": {
        "type": "Point",
        "coordinates": [
          -80.035798,
          26.6770641
        ]
      },
      "id": "node/12181038228"
    },
    {
      "type": "Feature",
      "properties": {
        "@id": "node/12316540388",
        "leisure": "beach_resort",
        "name": "European Wax Center"
      },
      "geometry": {
        "type": "Point",
        "coordinates": [
          -92.2967722,
          38.9472387
        ]
      },
      "id": "node/12316540388"
    },
    {
      "type": "Feature",
      "properties": {
        "@id": "node/12437072592",
        "addr:housenumber": "37",
        "addr:street": "Bix Trail Montague, MI 49437",
        "description": "Airbnb undwr the Freshwater Vacation Rentals property",
        "leisure": "beach_resort",
        "name": "Wooded Sands"
      },
      "geometry": {
        "type": "Point",
        "coordinates": [
          -86.4392014,
          43.439476
        ]
      },
      "id": "node/12437072592"
    }
  ]
}